CCSDS_OMM_VERS,COMMENT,CREATION_DATE,ORIGINATOR,OBJECT_NAME,OBJECT_ID,CENTER_NAME,REF_FRAME,TIME_SYSTEM,MEAN_ELEMENT_THEORY,EPOCH,MEAN_MOTION,ECCENTRICITY,INCLINATION,RA_OF_ASC_NODE,ARG_OF_PERICENTER,MEAN_ANOMALY,EPHEMERIS_TYPE,CLASSIFICATION_TYPE,NORAD_CAT_ID,ELEMENT_SET_NO,REV_AT_EPOCH,BSTAR,MEAN_MOTION_DOT,MEAN_MOTION_DDOT,SEMIMAJOR_AXIS,PERIOD,APOAPSIS,PERIAPSIS,OBJECT_TYPE,RCS_SIZE,COUNTRY_CODE,LAUNCH_DATE,SITE,DECAY_DATE,FILE,GP_ID,TLE_LINE0,TLE_LINE1,TLE_LINE2
3.0,GENERATED VIA SPACE-TRACK.ORG API,2022-10-04T02:20:55,18 SPCS,COSMOS 1408 DEB,1982-092BZT,EARTH,TEME,UTC,SGP4,2022-09-26T10:50:19.096224,15.53149616,0.0018649,82.5783,163.4419,111.4754,248.849,0,U,52806,999,2069,0.00090197,0.00057283,0.0,6785.674,92.715,420.193,394.884,DEBRIS,SMALL,CIS,1982-09-16,PKMTR,2023-03-28,3590585,214121928,0 COSMOS 1408 DEB,1 52806U 82092BZT 22269.45160991  .00057283  00000-0  90197-3 0  9992,2 52806  82.5783 163.4419 0018649 111.4754 248.8490 15.53149616 20698
3.0,GENERATED VIA SPACE-TRACK.ORG API,2004-08-17T14:36:30,18 SPCS,SL-4 R/B,1988-025B,EARTH,TEME,UTC,SGP4,1988-03-27T13:01:37.701407,16.40592127,0.0043638,67.1531,11.3885,88.2564,272.5893,0,U,19012,999,48,0.00030229,0.13085806,2.6327e-05,6542.369,87.773,192.783,135.684,ROCKET BODY,,,,,1988-03-27,34579,16227429,0 SL-4 R/B,1 19012U 88025  B 88087.54279747  .13085806 +26327-4 +30229-3 0  9996,2 19012 067.1531 011.3885 0043638 088.2564 272.5893 16.40592127000486
3.0,GENERATED VIA SPACE-TRACK.ORG API,2004-08-15T23:40:35,18 SPCS,COSMOS 818,1976-044A,EARTH,TEME,UTC,SGP4,1977-03-07T00:57:45.772703,16.49691848,0.0010195,71.0251,327.1733,278.6331,82.9361,0,U,8851,999,4624,0.0,0.1138924,0.0,6518.288,87.289,146.798,133.507,PAYLOAD,LARGE,CIS,1976-05-18,PKMTR,1977-03-07,34010,10054531,0 COSMOS 818,1 08851U 76044  A 77066.04011311  .11389240 +00000-0 +00000-0 0  9998,2 08851 071.0251 327.1733 0010195 278.6331 082.9361 16.49691848046243
3.0,GENERATED VIA SPACE-TRACK.ORG API,2022-10-04T19:02:35,18 SPCS,COSMOS 1408 DEB,1982-092NX,EARTH,TEME,UTC,SGP4,2022-10-04T04:04:53.050944,16.24466345,0.0008738,82.4451,150.932,236.4177,123.628,0,U,49912,999,4922,0.0046656,0.1257559,-1.1595e-06,6585.59,88.644,213.21,201.701,DEBRIS,SMALL,CIS,1982-09-16,PKMTR,2022-10-05,3591197,214159749,0 COSMOS 1408 DEB,1 49912U 82092NX  22277.17005846  .12575590 -11595-5  46656-2 0  9997,2 49912  82.4451 150.9320 0008738 236.4177 123.6280 16.24466345 49227
3.0,GENERATED VIA SPACE-TRACK.ORG API,2004-08-15T23:41:47,18 SPCS,SL-6 R/B(2),1972-075D,EARTH,TEME,UTC,SGP4,1978-02-13T23:11:46.921919,10.2983005,0.2703319,64.775,2.1308,236.7259,94.4627,0,U,6303,999,27851,0.0,0.21422248,0.0,8923.976,139.828,4958.276,133.405,ROCKET BODY,LARGE,CIS,1972-09-30,PKMTR,1978-02-21,34034,10357008,0 SL-6 R/B(2),1 06303U 72075  D 78044.96651530  .21422248 +00000-0 +00000-0 0  9996,2 06303 064.7750 002.1308 2703319 236.7259 094.4627 10.29830050278519
3.0,GENERATED VIA SPACE-TRACK.ORG API,2004-08-15T23:37:47,18 SPCS,SL-4 R/B,1970-082B,EARTH,TEME,UTC,SGP4,1970-10-12T10:06:16.382016,16.28162192,0.0028349,64.9233,208.6579,18.922,341.2955,0,U,4577,999,48,0.0,0.03725572,0.0,6575.624,88.443,216.13,178.848,ROCKET BODY,,,,,1970-10-13,33954,8901033,0 SL-4 R/B,1 04577U 70082  B 70285.42102294  .03725572 +00000-0 +00000-0 0  9997,2 04577 064.9233 208.6579 0028349 018.9220 341.2955 16.28162192000486
3.0,GENERATED VIA SPACE-TRACK.ORG API,2004-08-17T14:49:00,18 SPCS,DELTA 1 DEB,1973-086BV,EARTH,TEME,UTC,SGP4,1992-12-23T07:58:04.076832,13.94389617,0.0047212,99.1484,296.6077,192.6642,167.3471,0,U,7077,999,39987,0.00011832,1.24e-06,0.0,7291.429,103.27,947.718,878.87,DEBRIS,SMALL,US,1973-11-06,AFWTR,1987-04-02,34829,18631202,0 DELTA 1 DEB,1 07077U 73086 BV 92358.33199163  .00000124 +00000-0 +11832-3 0  9992,2 07077 099.1484 296.6077 0047212 192.6642 167.3471 13.94389617399877
3.0,GENERATED VIA SPACE-TRACK.ORG API,2022-11-27T19:47:16,18 SPCS,FENGYUN 1C DEB,1999-025SS,EARTH,TEME,UTC,SGP4,2022-11-26T21:03:23.967072,16.22837879,0.0015552,99.0525,300.2062,160.8645,199.3227,0,U,30137,999,84870,0.0082475,0.19901914,3.4515e-06,6589.995,88.733,222.109,201.611,DEBRIS,SMALL,PRC,1999-05-10,TSC,2022-11-29,3671616,218944829,0 FENGYUN 1C DEB,1 30137U 99025SS  22330.87736073  .19901914  34515-5  82475-2 0  9995,2 30137  99.0525 300.2062 0015552 160.8645 199.3227 16.22837879848700
3.0,GENERATED VIA SPACE-TRACK.ORG API,2023-04-10T19:14:30,18 SPCS,RESURS O1 DEB,1994-074DM,EARTH,TEME,UTC,SGP4,2023-04-10T02:38:34.951200,15.5314887,0.0009849,97.7936,157.0772,242.9494,117.0754,0,U,47323,999,11990,0.012793,0.00881011,0.0,6785.676,92.715,414.224,400.858,DEBRIS,SMALL,CIS,1994-11-04,TTMTR,2023-04-20,3885195,229846522,0 RESURS O1 DEB,1 47323U 94074DM  23100.11012675  .00881011  00000-0  12793-1 0  9994,2 47323  97.7936 157.0772 0009849 242.9494 117.0754 15.53148870119902
3.0,GENERATED VIA SPACE-TRACK.ORG API,2004-08-16T23:25:35,18 SPCS,COSMOS 1776 DEB,1986-067F,EARTH,TEME,UTC,SGP4,1987-10-21T03:30:12.263328,15.95285275,0.0005878,74.046,311.378,18.7687,343.3978,0,U,17009,999,6033,0.0037511,0.01478637,0.0,6665.66,90.265,291.443,283.607,DEBRIS,SMALL,CIS,1986-09-03,PKMTR,1987-10-24,34538,15536030,0 COSMOS 1776 DEB,1 17009U 86067  F 87294.14597527  .01478637 +00000-0 +37511-2 0  9999,2 17009 074.0460 311.3780 0005878 018.7687 343.3978 15.95285275060336
3.0,GENERATED VIA SPACE-TRACK.ORG API,2004-08-15T23:35:47,18 SPCS,ATLAS D DEB,1966-046AE,EARTH,TEME,UTC,SGP4,1966-06-19T04:19:41.280960,16.12625966,0.0028612,28.7824,187.9561,194.9441,165.0268,0,U,2252,999,281,0.0,0.00266511,0.00019873,6617.79,89.295,258.59,220.72,DEBRIS,,,,,1966-06-23,33914,8720130,0 ATLAS D DEB,1 02252U 66046 AE 66170.18033890  .00266511 +19873-3 +00000-0 0  9997,2 02252 028.7824 187.9561 0028612 194.9441 165.0268 16.12625966002815
3.0,GENERATED VIA SPACE-TRACK.ORG API,2004-08-16T23:16:38,18 SPCS,COSMOS 1512 DEB,1983-119K,EARTH,TEME,UTC,SGP4,1983-12-22T23:56:52.816127,15.60068389,0.0024023,72.9147,226.0681,174.3628,185.7044,0,U,14580,999,243,0.024567,0.02021802,0.0,6765.6,92.303,403.718,371.212,DEBRIS,,,,,1983-12-28,34359,13476719,0 COSMOS 1512 DEB,1 14580U 83119  K 83356.99783352  .02021802 +00000-0 +24567-1 0  9991,2 14580 072.9147 226.0681 0024023 174.3628 185.7044 15.60068389002431
3.0,GENERATED VIA SPACE-TRACK.ORG API,2011-03-20T16:31:17,18 SPCS,SL-12 R/B(AUX MOTOR),2004-043H,EARTH,TEME,UTC,SGP4,2011-03-20T06:08:31.379135,13.53356443,0.1273975,46.8779,36.6111,322.4625,188.8427,0,U,28478,999,5536,0.0065044,0.99999999,5.6108e-05,7438.076,106.402,2007.534,112.349,ROCKET BODY,MEDIUM,CIS,2004-10-29,TTMTR,2011-03-20,1057775,82257248,0 SL-12 R/B(AUX MOTOR),1 28478U 04043H   11079.25591874  .99999999  56108-4  65044-2 0  9996,2 28478 046.8779 036.6111 1273975 322.4625 188.8427 13.53356443 55362
3.0,GENERATED VIA SPACE-TRACK.ORG API,2005-06-09T11:44:05,18 SPCS,DELTA 1 DEB,1975-052GF,EARTH,TEME,UTC,SGP4,1991-10-27T12:41:39.608160,14.37226278,0.0258776,98.6862,132.9639,348.0468,22.6105,0,U,21510,999,1801,3.7071,0.16262825,0.0,7145.819,100.192,952.6,582.767,DEBRIS,SMALL,US,1975-06-12,AFWTR,1991-10-29,145815,49694889,0 DELTA 1 DEB,1 21510U 75052 GF 91300.52893065  .16262825 +00000-0 +3707101 0  9999,2 21510 098.6862 132.9639 0258776 348.0468 022.6105 14.37226278018019
3.0,GENERATED VIA SPACE-TRACK.ORG API,2004-08-16T23:16:38,18 SPCS,COSMOS 1483 DEB,1983-074D,EARTH,TEME,UTC,SGP4,1983-08-11T01:48:20.667744,16.19921394,0.0053236,82.3157,59.1267,279.247,80.9994,0,U,14242,999,347,0.0061201,0.15442949,-9.9701e-06,6597.906,88.893,254.896,184.646,DEBRIS,,,,,1983-08-11,34359,13461430,0 COSMOS 1483 DEB,1 14242U 83074  D 83223.07523921  .15442949 -99701-5 +61201-2 0  9994,2 14242 082.3157 059.1267 0053236 279.2470 080.9994 16.19921394003479
3.0,GENERATED VIA SPACE-TRACK.ORG API,2004-05-30T15:51:38,18 SPCS,SL-12 DEB,1987-079BE,EARTH,TEME,UTC,SGP4,2004-05-17T23:57:16.159680,5.87354634,0.4875311,65.7183,15.7784,62.6954,356.0651,0,U,28150,999,1904,0.080836,0.00902943,0.0,12975.831,245.167,12923.817,271.574,DEBRIS,SMALL,CIS,1987-09-16,TTMTR,2004-06-06,8022,7889655,0 SL-12 DEB,1 28150U 87079BE  04138.99810370 +.00902943 +00000-0 +80836-1 0  9993,2 28150 065.7183 015.7784 4875311 062.6954 356.0651 05.87354634019046
3.0,GENERATED VIA SPACE-TRACK.ORG API,2024-05-18T22:46:18,18 SPCS,CZ-6A DEB,2022-151RU,EARTH,TEME,UTC,SGP4,2024-05-10T01:49:43.377600,15.26638723,0.0026689,98.7879,177.9384,111.782,248.6258,0,U,54931,999,7892,0.040303,0.01171044,0.0,6864.006,94.325,504.19,467.552,DEBRIS,SMALL,PRC,2022-11-11,TSC,2024-05-20,4321239,257547661,0 CZ-6A DEB,1 54931U 22151RU  24131.07619650  .01171044  00000-0  40303-1 0  9997,2 54931  98.7879 177.9384 0026689 111.7820 248.6258 15.26638723 78926
3.0,GENERATED VIA SPACE-TRACK.ORG API,2004-08-17T14:52:15,18 SPCS,SL-14 R/B,1994-072B,EARTH,TEME,UTC,SGP4,1994-11-02T12:45:38.842848,16.37649896,0.0100388,64.9777,90.2057,57.5592,303.5636,0,U,23337,999,6,0.00031733,0.39663655,8.5334e-06,6550.202,87.93,237.823,106.311,ROCKET BODY,,,,,1994-11-02,34894,19446667,0 SL-14 R/B,1 23337U 94072  B 94306.53169957  .39663655 +85334-5 +31733-3 0  9998,2 23337 064.9777 090.2057 0100388 057.5592 303.5636 16.37649896000067
3.0,GENERATED VIA SPACE-TRACK.ORG API,2005-05-02T23:40:10,18 SPCS,ARIANE 1 DEB,1986-019DJ,EARTH,TEME,UTC,SGP4,1989-03-06T03:38:03.177887,15.62804024,0.0009714,98.6387,134.9458,301.0619,61.5313,0,U,17337,999,11954,0.1964,0.17691637,0.0,6757.703,92.142,386.132,373.003,DEBRIS,,,,,1989-03-06,131042,43968557,0 ARIANE 1 DEB,1 17337U 86019 DJ 89065.15142567  .17691637 +00000-0 +0196401 0  9994,2 17337 098.6387 134.9458 0009714 301.0619 061.5313 15.62804024119540
